NORAD_CAT_ID,OBJECT_NAME,OBJECT_TYPE,EPOCH,MEAN_MOTION,ECCENTRICITY,INCLINATION,RA_OF_ASC_NODE,ARG_OF_PERICENTER,MEAN_ANOMALY,BSTAR,MEAN_MOTION_DOT,MEAN_MOTION_DDOT,TLE_LINE0,TLE_LINE1,TLE_LINE2,SEMIMAJOR_AXIS,PERIOD,APOGEE,PERIGEE,DECAYED
52357.0,STARLINK-3821,PAYLOAD,2022-08-19 14:00:01,15.08817121,0.0002356999999999,53.219,266.5421,35.3646,10.7717,0.002575,0.00040906,0.0,0 STARLINK-3821,1 52357U 22045AC  22231.58334491  .00040906  00000-0  25750-2 0  9992,2 52357  53.2190 266.5421 0002357  35.3646  10.7717 15.08817121  1305,6917.95,95.439,541.446,538.185,0.0
52357.0,STARLINK-3821,PAYLOAD,2022-08-19 16:00:00,15.08840756,0.0002346999999999,53.2189,266.1676,35.8658,103.1598,-0.00015068,-2.686e-05,0.0,0 STARLINK-3821,1 52357U 22045AC  22231.66667824 -.00002686  00000-0 -15068-3 0  9997,2 52357  53.2189 266.1676 0002347  35.8658 103.1598 15.08840756 19828,6917.878000000002,95.438,541.367,538.119,0.0
52357.0,STARLINK-3821,PAYLOAD,2022-08-19 22:00:00,15.08818409,0.0002165,53.2193,265.0441,39.2744,18.4534,0.0023197,0.00036802,0.0,0 STARLINK-3821,1 52357U 22045AC  22231.91667824  .00036802  00000-0  23197-2 0  9991,2 52357  53.2193 265.0441 0002165  39.2744  18.4534 15.08818409  1305,6917.946,95.439,541.309,538.314,0.0
52357.0,STARLINK-3821,PAYLOAD,2022-08-20 14:00:01,15.08832168,0.0002424999999999,53.2192,262.0533,36.3957,44.5167,0.0020398,0.00032318,0.0,0 STARLINK-3821,1 52357U 22045AC  22232.58334491  .00032318  00000-0  20398-2 0  9994,2 52357  53.2192 262.0533 0002425  36.3957  44.5167 15.08832168  1306,6917.904,95.438,541.447,538.092,0.0
52357.0,STARLINK-3821,PAYLOAD,2022-08-20 22:00:00,15.08827933,0.000221,53.2194,260.5553,40.5479,51.9727,0.0024645,0.0003913999999999,0.0,0 STARLINK-3821,1 52357U 22045AC  22232.91667824  .00039140  00000-0  24645-2 0  9999,2 52357  53.2194 260.5553 0002210  40.5479  51.9727 15.08827933  1309,6917.917,95.438,541.311,538.253,0.0
52357.0,STARLINK-3821,PAYLOAD,2022-08-21 14:00:01,15.08830735,0.0002396,53.219,257.5644,35.7464,79.9837,0.0001337,1.84e-05,0.0,0 STARLINK-3821,1 52357U 22045AC  22233.58334491  .00001840  00000-0  13370-3 0  9994,2 52357  53.2190 257.5644 0002396  35.7464  79.9837 15.08830735 20113,6917.909000000002,95.438,541.431,538.116,0.0
52357.0,STARLINK-3821,PAYLOAD,2022-08-21 22:00:00,15.08807188,0.0002151999999999,53.2191,256.0666,39.4668,87.8557,0.0024719,0.00039237,0.0,0 STARLINK-3821,1 52357U 22045AC  22233.91667824  .00039237  00000-0  24719-2 0  9999,2 52357  53.2191 256.0666 0002152  39.4668  87.8557 15.08807188  1302,6917.981,95.44,541.3340000000002,538.357,0.0
52357.0,STARLINK-3821,PAYLOAD,2022-08-22 12:00:00,15.08810202,0.000239,53.2188,253.4502,37.2683,20.3225,0.0025734,0.00040873,0.0,0 STARLINK-3821,1 52357U 22045AC  22234.50001157  .00040873  00000-0  25734-2 0  9992,2 52357  53.2188 253.4502 0002390  37.2683  20.3225 15.08810202  1300,6917.971,95.439,541.49,538.183,0.0
52357.0,STARLINK-3821,PAYLOAD,2022-08-22 22:00:00,15.08812794,0.0002186,53.2184,251.578,41.3879,120.6851,0.0023926999999999,0.00037969,0.0,0 STARLINK-3821,1 52357U 22045AC  22234.91667824  .00037969  00000-0  23927-2 0  9990,2 52357  53.2184 251.5780 0002186  41.3879 120.6851 15.08812794 20318,6917.964,95.439,541.341,538.316,0.0
52357.0,STARLINK-3821,PAYLOAD,2022-08-23 14:00:01,15.08835456,0.0002426,53.2178,248.5871,38.9073,146.3314,2.2262e-05,6.6e-07,0.0,0 STARLINK-3821,1 52357U 22045AC  22235.58334491  .00000066  00000-0  22262-4 0  9996,2 52357  53.2178 248.5871 0002426  38.9073 146.3314 15.08835456 20413,6917.894,95.438,541.438,538.081,0.0
52357.0,STARLINK-3821,PAYLOAD,2022-08-23 22:00:01,15.08816263,0.0002251,53.2176,247.0891,43.39100000000001,153.5081,0.0023225,0.00036845,0.0,0 STARLINK-3821,1 52357U 22045AC  22235.91668981  .00036845  00000-0  23225-2 0  9999,2 52357  53.2176 247.0891 0002251  43.3910 153.5081 15.08816263  1306,6917.953,95.439,541.375,538.261,0.0
52357.0,STARLINK-3821,PAYLOAD,2022-08-24 14:00:01,15.08843802,0.0002484999999999,53.2173,244.0982,40.4516,179.5563,-0.00058655,-9.613e-05,0.0,0 STARLINK-3821,1 52357U 22045AC  22236.58334491 -.00009613  00000-0 -58655-3 0  9990,2 52357  53.2173 244.0982 0002485  40.4516 179.5563 15.08843802  1302,6917.869000000002,95.437,541.453,538.015,0.0
52357.0,STARLINK-3821,PAYLOAD,2022-08-24 22:00:00,15.08819678,0.0002348,53.2172,242.6002,44.8594,186.7507,0.002345,0.0003721,0.0,0 STARLINK-3821,1 52357U 22045AC  22236.91667824  .00037210  00000-0  23450-2 0  9992,2 52357  53.2172 242.6002 0002348  44.8594 186.7507 15.08819678 20617,6917.943,95.439,541.432,538.183,0.0
52357.0,STARLINK-3821,PAYLOAD,2022-08-25 14:00:01,15.08852914,0.0002577,53.2172,239.609,41.67,213.121,-0.0011599,-0.00018708,0.0,0 STARLINK-3821,1 52357U 22045AC  22237.58334491 -.00018708  00000-0 -11599-2 0  9991,2 52357  53.2172 239.6090 0002577  41.6700 213.1210 15.08852914  1309,6917.840999999999,95.437,541.489,537.923,0.0
52357.0,STARLINK-3821,PAYLOAD,2022-08-25 22:00:00,15.0882488,0.000247,53.2173,238.111,46.1596,220.24,0.0024319,0.00038613,0.0,0 STARLINK-3821,1 52357U 22045AC  22237.91667824  .00038613  00000-0  24319-2 0  9996,2 52357  53.2173 238.1110 0002470  46.1596 220.2400 15.08824880  1303,6917.927,95.439,541.5,538.0830000000002,0.0
52357.0,STARLINK-3821,PAYLOAD,2022-08-26 06:00:00,15.0885275,0.0002661999999999,53.2174,236.6162,44.3437,233.6532,-0.0010667,-0.00017232,0.0,0 STARLINK-3821,1 52357U 22045AC  22238.25001157 -.00017232  00000-0 -10667-2 0  9992,2 52357  53.2174 236.6162 0002662  44.3437 233.6532 15.08852750 20819,6917.840999999999,95.437,541.548,537.865,0.0
52357.0,STARLINK-3821,PAYLOAD,2022-08-26 14:00:01,15.08875454,0.0002641,53.2175,235.1196,42.3651,247.2906,-0.0040869999999999,-0.00064815,0.0,0 STARLINK-3821,1 52357U 22045AC  22238.58335648 -.00064815  00000-0 -40870-2 0  9991,2 52357  53.2175 235.1196 0002641  42.3651 247.2906 15.08875454  1309,6917.772,95.435,541.464,537.81,0.0
52357.0,STARLINK-3821,PAYLOAD,2022-08-26 22:00:00,15.08805114,0.0002495,53.2179,233.6217,45.7405,255.4718,0.002528,0.00040137,0.0,0 STARLINK-3821,1 52357U 22045AC  22238.91667824  .00040137  00000-0  25280-2 0  9999,2 52357  53.2179 233.6217 0002495  45.7405 255.4718 15.08805114  1309,6917.986999999999,95.44,541.578,538.126,0.0
52357.0,STARLINK-3821,PAYLOAD,2022-08-27 14:00:01,15.08844889,0.000269,53.2181,230.6305,42.8545,281.5024,-0.0019131,-0.00030613,0.0,0 STARLINK-3821,1 52357U 22045AC  22239.58334491 -.00030613  00000-0 -19131-2 0  9992,2 52357  53.2181 230.6305 0002690  42.8545 281.5024 15.08844889  1309,6917.865,95.437,541.591,537.87,0.0
52357.0,STARLINK-3821,PAYLOAD,2022-08-27 22:00:00,15.08815868,0.0002577,53.2186,229.1327,47.7545,288.1962,0.0024609,0.0003907,0.0,0 STARLINK-3821,1 52357U 22045AC  22239.91667824  .00039070  00000-0  24609-2 0  9998,2 52357  53.2186 229.1327 0002577  47.7545 288.1962 15.08815868  1308,6917.954000000002,95.439,541.602,538.036,0.0
52357.0,STARLINK-3821,PAYLOAD,2022-08-28 06:00:00,15.08841119,0.0002771999999999,53.2187,227.6381,45.3748,302.1622,-0.000761,-0.00012381,0.0,0 STARLINK-3821,1 52357U 22045AC  22240.25001157 -.00012381  00000-0 -76100-3 0  9990,2 52357  53.2187 227.6381 0002772  45.3748 302.1622 15.08841119 21117,6917.877,95.437,541.66,537.8240000000002,0.0
52357.0,STARLINK-3821,PAYLOAD,2022-08-28 14:00:01,15.08857899,0.0002741,53.2186,226.1413,44.9718,314.152,-0.0020234,-0.00032365,0.0,0 STARLINK-3821,1 52357U 22045AC  22240.58334491 -.00032365  00000-0 -20234-2 0  9996,2 52357  53.2186 226.1413 0002741  44.9718 314.1520 15.08857899  1305,6917.826,95.436,541.587,537.795,0.0
52357.0,STARLINK-3821,PAYLOAD,2022-08-28 22:00:00,15.08829666,0.0002617,53.2191,224.6438,49.8176,320.9108,0.002266,0.00035951,0.0,0 STARLINK-3821,1 52357U 22045AC  22240.91667824  .00035951  00000-0  22660-2 0  9999,2 52357  53.2191 224.6438 0002617  49.8176 320.9108 15.08829666  1303,6917.9119999999975,95.438,541.587,537.967,0.0
52357.0,STARLINK-3821,PAYLOAD,2022-08-29 06:00:02,15.08849287,0.0002805,53.2191,223.1491,47.0049,335.3855,-0.00068229,-0.00011134,0.0,0 STARLINK-3821,1 52357U 22045AC  22241.25002315 -.00011134  00000-0 -68229-3 0  9996,2 52357  53.2191 223.1491 0002805  47.0049 335.3855 15.08849287 21272,6917.852,95.437,541.6569999999998,537.7769999999998,0.0
52357.0,STARLINK-3821,PAYLOAD,2022-08-29 14:00:01,15.08877618,0.0002717,53.2189,221.6522,46.4487,347.4742,-0.0047608,-0.00075348,0.0,0 STARLINK-3821,1 52357U 22045AC  22241.58334491 -.00075348  00000-0 -47608-2 0  9999,2 52357  53.2189 221.6522 0002717  46.4487 347.4742 15.08877618  1308,6917.765,95.435,541.51,537.751,0.0
52357.0,STARLINK-3821,PAYLOAD,2022-08-29 22:00:00,15.08815788,0.0002549999999999,53.2192,220.1549,50.3915,355.145,0.0019544,0.00030933,0.0,0 STARLINK-3821,1 52357U 22045AC  22241.91667824  .00030933  00000-0  19544-2 0  9992,2 52357  53.2192 220.1549 0002550  50.3915 355.1450 15.08815788  1302,6917.954000000002,95.439,541.5830000000002,538.055,0.0
52357.0,STARLINK-3821,PAYLOAD,2022-08-30 14:00:01,15.08845244,0.0002683999999999,53.2189,217.1634,48.1586,20.5297,-0.0021194,-0.00033868,0.0,0 STARLINK-3821,1 52357U 22045AC  22242.58334491 -.00033868  00000-0 -21194-2 0  9993,2 52357  53.2189 217.1634 0002684  48.1586  20.5297 15.08845244 21478,6917.864000000001,95.437,541.586,537.873,0.0
52357.0,STARLINK-3821,PAYLOAD,2022-08-30 22:00:00,15.088309699999998,0.0002602,53.2191,215.6663,52.999,27.2816,0.0016088,0.00025403,0.0,0 STARLINK-3821,1 52357U 22045AC  22242.91667824  .00025403  00000-0  16088-2 0  9999,2 52357  53.2191 215.6663 0002602  52.9990  27.2816 15.08830970  1309,6917.908,95.438,541.573,537.9730000000002,0.0
52357.0,STARLINK-3821,PAYLOAD,2022-08-31 14:00:01,15.0885659,0.0002719,53.2187,212.6748,50.7387,52.7207,-0.0018712,-0.00029961,0.0,0 STARLINK-3821,1 52357U 22045AC  22243.58334491 -.00029961  00000-0 -18712-2 0  9995,2 52357  53.2187 212.6748 0002719  50.7387  52.7207 15.08856590  1303,6917.83,95.437,541.576,537.814,0.0
